{
  "norad_id": 60545,
  "name": "HAWK-10B",
  "history": [
    {
      "epoch": "2026-03-28T20:37:47.655840Z",
      "apogee_km": 582.3143989427053,
      "perigee_km": 574.6623892742018,
      "latitude_deg": 7.453794716130273e-06,
      "longitude_deg": 28.867757020911174,
      "height_km": 577.8553983994484,
      "semi_major_axis_km": 6956.625394108453,
      "eccentricity": 0.00054998,
      "inclination_deg": 97.6848,
      "raan_deg": 164.5903,
      "arg_perigee_deg": 15.8905,
      "mean_anomaly_deg": 344.2488,
      "mean_motion_rev_day": 14.96252315
    },
    {
      "epoch": "2026-03-29T04:39:17.659296Z",
      "apogee_km": 582.2839633535032,
      "perigee_km": 574.6748163462844,
      "latitude_deg": 1.2731756333831502e-05,
      "longitude_deg": -91.50863312202472,
      "height_km": 577.847095637105,
      "semi_major_axis_km": 6956.6163898498935,
      "eccentricity": 0.0005469,
      "inclination_deg": 97.6847,
      "raan_deg": 164.9185,
      "arg_perigee_deg": 14.7441,
      "mean_anomaly_deg": 345.3939,
      "mean_motion_rev_day": 14.9625522
    }
  ]
}